     2.100          NAVIGATION                              RINEX VERSION / TYPE
fic2rin                                 05/31/2010 00:52:13 PGM / RUN BY / DATE
                                                            END OF HEADER
 9 10  5 30  6  0  0.0  .949529930949D-05  .216004991671D-11  .000000000000D+00
     .940000000000D+02 -.800000000000D+02  .413874382386D-08  .133509914943D+01
    -.445730984211D-05  .170772145502D-01  .223144888878D-05  .515371475029D+04
     .216000000000D+05 -.126659870148D-06  .235931438682D+01 -.327825546265D-06
     .980771104025D+00  .348968750000D+03  .151832558218D+01 -.825498671047D-08
    -.853606984729D-10  .100000000000D+01  .158600000000D+04  .000000000000D+00
     .340000000000D+01  .000000000000D+00 -.558793544769D-08  .940000000000D+02
     .144060000000D+05  .400000000000D+01
10 10  5 30  6  0  0.0 -.435630790889D-04 -.682121026330D-12  .000000000000D+00
     .190000000000D+02  .833750000000D+02  .432017995284D-08 -.950572978494D+00
     .429153442383D-05  .916070234962D-02  .106357038021D-04  .515351588249D+04
     .216000000000D+05  .204890966415D-06  .314821372134D+00  .912696123123D-07
     .953746419389D+00  .171531250000D+03  .665873784499D+00 -.785246994404D-08
    -.446804325479D-09  .100000000000D+01  .158600000000D+04  .000000000000D+00
     .240000000000D+01  .000000000000D+00 -.279396772385D-08  .190000000000D+02
     .144060000000D+05  .400000000000D+01
12 10  5 30  6  0  0.0 -.109758228064D-03  .420641299570D-11  .000000000000D+00
     .200000000000D+02 -.868437500000D+02  .408838458334D-08  .204789396422D+01
    -.472553074360D-05  .352687027771D-02  .976026058197D-05  .515368989182D+04
     .216000000000D+05  .800937414169D-07 -.283933141332D+01  .577419996262D-07
     .971177271169D+00  .196812500000D+03 -.436681457741D+00 -.766889086866D-08
     .250367571671D-09  .100000000000D+01  .158600000000D+04  .000000000000D+00
     .240000000000D+01  .000000000000D+00 -.116415321827D-07  .200000000000D+02
     .144060000000D+05  .400000000000D+01
13 10  5 30  6  0  0.0  .303885433823D-03 -.454747350886D-12  .000000000000D+00
     .910000000000D+02  .100812500000D+03  .379730102997D-08 -.173253122901D+01
     .530853867531D-05  .450798985548D-02  .236742198467D-05  .515375633240D+04
     .216000000000D+05  .465661287308D-07  .140873369144D+01  .707805156708D-07
     .992629003028D+00  .351687500000D+03  .172236518452D+01 -.797390357366D-08
     .221437795202D-09  .100000000000D+01  .158600000000D+04  .000000000000D+00
     .240000000000D+01  .000000000000D+00 -.107102096081D-07  .910000000000D+02
     .144060000000D+05  .400000000000D+01
15 10  5 30  6  0  0.0 -.264953356236D-03  .625277607469D-11  .000000000000D+00
     .860000000000D+02  .110593750000D+03  .457340478638D-08 -.200641880008D+01
     .576302409172D-05  .248445221223D-02  .332295894623D-05  .515376643753D+04
     .216000000000D+05 -.298023223877D-07  .132272307753D+01  .279396772385D-07
     .953528860064D+00  .313718750000D+03 -.162065827447D+00 -.828605943335D-08
     .262510934634D-09  .100000000000D+01  .158600000000D+04  .000000000000D+00
     .240000000000D+01  .000000000000D+00 -.977888703346D-08  .860000000000D+02
     .144060000000D+05  .400000000000D+01
16 10  5 30  6  0  0.0 -.764653086662D-04 -.375166564481D-11  .000000000000D+00
     .900000000000D+01 -.790312500000D+02  .405338312539D-08 -.266750350720D+00
    -.411830842495D-05  .594279868528D-02  .101681798697D-04  .515377517700D+04
     .216000000000D+05  .800937414169D-07 -.282191383899D+01 -.633299350739D-07
     .972389045713D+00  .185718750000D+03 -.217386997715D+00 -.773353641855D-08
     .302869758598D-09  .100000000000D+01  .158600000000D+04  .000000000000D+00
     .240000000000D+01  .000000000000D+00 -.977888703346D-08  .900000000000D+01
     .144060000000D+05  .400000000000D+01
18 10  5 30  6  0  0.0  .714375637472D-04  .238742359215D-11  .000000000000D+00
     .750000000000D+02  .681562500000D+02  .486377402428D-08  .297293173397D-01
     .367686152458D-05  .114108941052D-01  .977888703346D-05  .515369746208D+04
     .216000000000D+05  .167638063431D-07  .314730122619D+00  .214204192162D-06
     .937717809699D+00  .178812500000D+03 -.233611309564D+01 -.825034365993D-08
    -.382158775590D-09  .100000000000D+01  .158600000000D+04  .000000000000D+00
     .240000000000D+01  .000000000000D+00 -.107102096081D-07  .750000000000D+02
     .144060000000D+05  .400000000000D+01
19 10  5 30  6  0  0.0 -.385465100408D-04 -.272848410532D-11  .000000000000D+00
     .760000000000D+02  .161875000000D+02  .500663711796D-08 -.207729194524D+01
     .713393092155D-06  .652670837007D-02  .694394111633D-05  .515373200989D+04
     .216000000000D+05 -.111758708954D-06 -.172394409299D+01 -.122934579849D-06
     .957388607033D+00  .246906250000D+03 -.156360309423D+00 -.806497879588D-08
     .489663253583D-09  .100000000000D+01  .158600000000D+04  .000000000000D+00
     .240000000000D+01  .000000000000D+00 -.149011611938D-07  .760000000000D+02
     .144060000000D+05  .400000000000D+01
20 10  5 30  6  0  0.0  .553820282221D-04 -.568434188608D-12  .000000000000D+00
     .890000000000D+02  .725937500000D+02  .476555564738D-08  .200066512865D+00
     .377185642719D-05  .422772462480D-02  .101216137409D-04  .515360619164D+04
     .216000000000D+05 -.428408384323D-07  .260812832907D+00  .167638063431D-07
     .937609439654D+00  .171875000000D+03  .132155056185D+01 -.806069290307D-08
    -.412160025262D-09  .100000000000D+01  .158600000000D+04  .000000000000D+00
     .240000000000D+01  .000000000000D+00 -.791624188423D-08  .890000000000D+02
     .144060000000D+05  .400000000000D+01
21 10  5 30  6  0  0.0 -.635925680399D-04 -.261479726760D-11  .000000000000D+00
     .740000000000D+02 -.120312500000D+02  .562987736413D-08  .113301344681D+01
    -.301748514175D-06  .165902613662D-01  .664964318275D-05  .515366488266D+04
     .216000000000D+05 -.117346644402D-06 -.741627101483D+00  .193715095520D-06
     .932494231019D+00  .241781250000D+03 -.247887456479D+01 -.863035948911D-08
    -.653598653579D-09  .100000000000D+01  .158600000000D+04  .000000000000D+00
     .240000000000D+01  .000000000000D+00 -.121071934700D-07  .740000000000D+02
     .144060000000D+05  .400000000000D+01
22 10  5 30  6  0  0.0  .170890241861D-03 -.909494701773D-12  .000000000000D+00
     .800000000000D+01  .735000000000D+02  .480912889095D-08 -.903525009340D+00
     .368803739548D-05  .529786956031D-02  .978447496891D-05  .515372152138D+04
     .216000000000D+05 -.391155481339D-07  .319633395385D+00  .132247805595D-06
     .935397721104D+00  .176843750000D+03 -.193861042295D+01 -.814676791701D-08
    -.407159816984D-09  .100000000000D+01  .158600000000D+04  .000000000000D+00
     .240000000000D+01  .000000000000D+00 -.176951289177D-07  .800000000000D+01
     .144060000000D+05  .400000000000D+01
23 10  5 30  6  0  0.0  .368968583643D-03 -.147792889038D-11  .000000000000D+00
     .980000000000D+02  .111406250000D+03  .427767818247D-08 -.260113132941D+01
     .577047467232D-05  .668950937688D-02  .288709998131D-05  .515368801689D+04
     .216000000000D+05 -.279396772385D-07  .134789100459D+01 -.558793544769D-08
     .967742861780D+00  .330312500000D+03  .301455464405D+01 -.810355183117D-08
     .254296306748D-09  .100000000000D+01  .158600000000D+04  .000000000000D+00
     .240000000000D+01  .000000000000D+00 -.200234353542D-07  .980000000000D+02
     .144060000000D+05  .400000000000D+01
24 10  5 30  6  0  0.0  .291764270514D-03  .329691829393D-11  .000000000000D+00
     .137000000000D+03 -.153125000000D+02  .512021327744D-08 -.142000031991D+01
    -.685453414917D-06  .568200030830D-02  .672414898872D-05  .515485783386D+04
     .216000000000D+05  .372529029846D-08 -.703108072005D+00 -.167638063431D-06
     .949134491147D+00  .241062500000D+03 -.473153586872D+00 -.826355849609D-08
    -.451804533758D-09  .100000000000D+01  .158600000000D+04  .000000000000D+00
     .340000000000D+01  .000000000000D+00 -.139698386192D-08  .137000000000D+03
     .144060000000D+05  .400000000000D+01
26 10  5 30  6  0  0.0 -.588186085224D-04 -.534328137292D-11  .000000000000D+00
     .240000000000D+02  .100968750000D+03  .369193949838D-08  .270240680444D+01
     .497512519360D-05  .194347943179D-01  .264495611191D-05  .515236850357D+04
     .216000000000D+05  .100582838058D-06  .140529294615D+01 -.186264514923D-06
     .990361471228D+00  .341875000000D+03  .109584802032D+01 -.762960351790D-08
     .211437378644D-09  .100000000000D+01  .158600000000D+04  .000000000000D+00
     .240000000000D+01  .000000000000D+00 -.605359673500D-08  .240000000000D+02
     .144060000000D+05  .400000000000D+01
27 10  5 30  6  0  0.0  .156487338245D-03  .341060513165D-11  .000000000000D+00
     .200000000000D+02 -.701875000000D+02  .409731352670D-08 -.184477704040D+01
    -.300444662571D-05  .215130805736D-01  .169500708580D-05  .515362574005D+04
     .216000000000D+05  .193715095520D-06  .233431451832D+01  .527128577232D-06
     .978415909784D+00  .352031250000D+03 -.141730332657D+01 -.799533303771D-08
    -.571452374714D-10  .100000000000D+01  .158600000000D+04  .000000000000D+00
     .240000000000D+01  .000000000000D+00 -.419095158577D-08  .200000000000D+02
     .144060000000D+05  .400000000000D+01
29 10  5 30  6  0  0.0  .123593956232D-03  .284217094304D-11  .000000000000D+00
     .820000000000D+02  .102812500000D+02  .490198990184D-08  .131163524543D+01
     .527128577232D-06  .303829088807D-02  .700540840626D-05  .515372863007D+04
     .216000000000D+05  .558793544769D-08 -.177072453831D+01 -.113621354103D-06
     .960117936720D+00  .247312500000D+03 -.128933762508D+01 -.800533345427D-08
     .470019578202D-09  .100000000000D+01  .158600000000D+04  .000000000000D+00
     .240000000000D+01  .000000000000D+00 -.884756445885D-08  .820000000000D+02
     .144060000000D+05  .400000000000D+01
